{"type": "FeatureCollection", "features": [ {"type": "Feature", "properties": {"norad_id": 39122, "name": "EUTELSAT 117 WEST A", "group": "eutelsat", "lat": 0.03594955929767182, "lon": 103.37248285174924, "alt_km": 35797.25450477094, "timestamp": "2025-12-16T08:59:42.830510+00:00", "meta": {"OBJECT_NAME": "EUTELSAT 117 WEST A", "OBJECT_ID": "2013-012A", "EPOCH": "2025-12-15T21:23:35.225088", "MEAN_MOTION": 1.00272447, "ECCENTRICITY": 0.00027768, "INCLINATION": 0.022, "RA_OF_ASC_NODE": 34.6109, "ARG_OF_PERICENTER": 234.2844, "MEAN_ANOMALY": 19.9875, "EPHEMERIS_TYPE": 0, "CLASSIFICATION_TYPE": "U", "NORAD_CAT_ID": 39122, "ELEMENT_SET_NO": 999, "REV_AT_EPOCH": 4659, "BSTAR": 0, "MEAN_MOTION_DOT": 9e-08, "MEAN_MOTION_DDOT": 0}, "tle": {"line1": "1 39122U 13012A   25349.89137992  .00000009  00000+0  00000+0 0  9992", "line2": "2 39122   0.0220  34.6109 0002776 234.2844  19.9875  1.00272447 46595"}}, "geometry": {"type": "Point", "coordinates": [103.37248285174924, 0.03594955929767182]}}, {"type": "Feature", "properties": {"norad_id": 39163, "name": "EUTELSAT 7B", "group": "eutelsat", "lat": -0.077405203062499, "lon": -132.84891022998258, "alt_km": 35786.54077954118, "timestamp": "2025-12-16T08:59:42.830522+00:00", "meta": {"OBJECT_NAME": "EUTELSAT 7B", "OBJECT_ID": "2013-022A", "EPOCH": "2025-12-15T21:58:54.342336", "MEAN_MOTION": 1.00272765, "ECCENTRICITY": 0.00045936, "INCLINATION": 0.0657, "RA_OF_ASC_NODE": 349.8811, "ARG_OF_PERICENTER": 329.7576, "MEAN_ANOMALY": 101.9207, "EPHEMERIS_TYPE": 0, "CLASSIFICATION_TYPE": "U", "NORAD_CAT_ID": 39163, "ELEMENT_SET_NO": 999, "REV_AT_EPOCH": 4611, "BSTAR": 0, "MEAN_MOTION_DOT": 7.1e-07, "MEAN_MOTION_DDOT": 0}, "tle": {"line1": "1 39163U 13022A   25349.91590674  .00000071  00000+0  00000+0 0  9990", "line2": "2 39163   0.0657 349.8811 0004593 329.7576 101.9207  1.00272765 46118"}}, "geometry": {"type": "Point", "coordinates": [-132.84891022998258, -0.077405203062499]}}, {"type": "Feature", "properties": {"norad_id": 39612, "name": "EXPRESS-AT1", "group": "eutelsat", "lat": -0.02217484685178239, "lon": -83.80629856248527, "alt_km": 35788.328918666106, "timestamp": "2025-12-16T08:59:42.830534+00:00", "meta": {"OBJECT_NAME": "EXPRESS-AT1", "OBJECT_ID": "2014-010A", "EPOCH": "2025-12-16T03:21:00.993312", "MEAN_MOTION": 1.00270589, "ECCENTRICITY": 5.45e-05, "INCLINATION": 0.0153, "RA_OF_ASC_NODE": 301.1938, "ARG_OF_PERICENTER": 188.1524, "MEAN_ANOMALY": 61.9508, "EPHEMERIS_TYPE": 0, "CLASSIFICATION_TYPE": "U", "NORAD_CAT_ID": 39612, "ELEMENT_SET_NO": 999, "REV_AT_EPOCH": 4298, "BSTAR": 0, "MEAN_MOTION_DOT": 1.02e-06, "MEAN_MOTION_DDOT": 0}, "tle": {"line1": "1 39612U 14010A   25350.13959483  .00000102  00000+0  00000+0 0  9995", "line2": "2 39612   0.0153 301.1938 0000545 188.1524  61.9508  1.00270589 42984"}}, "geometry": {"type": "Point", "coordinates": [-83.80629856248527, -0.02217484685178239]}}, {"type": "Feature", "properties": {"norad_id": 39613, "name": "EXPRESS-AT2", "group": "eutelsat", "lat": 0.021929364875853275, "lon": 0.05000846364954528, "alt_km": 35783.09317448677, "timestamp": "2025-12-16T08:59:42.830546+00:00", "meta": {"OBJECT_NAME": "EXPRESS-AT2", "OBJECT_ID": "2014-010B", "EPOCH": "2025-12-15T22:36:50.710176", "MEAN_MOTION": 1.00273354, "ECCENTRICITY": 0.00011822, "INCLINATION": 0.0133, "RA_OF_ASC_NODE": 293.0927, "ARG_OF_PERICENTER": 8.5966, "MEAN_ANOMALY": 262.2151, "EPHEMERIS_TYPE": 0, "CLASSIFICATION_TYPE": "U", "NORAD_CAT_ID": 39613, "ELEMENT_SET_NO": 999, "REV_AT_EPOCH": 4266, "BSTAR": 0, "MEAN_MOTION_DOT": -2.58e-06, "MEAN_MOTION_DDOT": 0}, "tle": {"line1": "1 39613U 14010B   25349.94225359 -.00000258  00000+0  00000+0 0  9994", "line2": "2 39613   0.0133 293.0927 0001182   8.5966 262.2151  1.00273354 42661"}}, "geometry": {"type": "Point", "coordinates": [0.05000846364954528, 0.021929364875853275]}}, {"type": "Feature", "properties": {"norad_id": 39773, "name": "EUTELSAT 3B", "group": "eutelsat", "lat": -0.0650403723756241, "lon": -136.73626638810532, "alt_km": 35767.98341006509, "timestamp": "2025-12-16T08:59:42.830558+00:00", "meta": {"OBJECT_NAME": "EUTELSAT 3B", "OBJECT_ID": "2014-030A", "EPOCH": "2025-12-15T21:00:38.918016", "MEAN_MOTION": 1.00271593, "ECCENTRICITY": 0.00043344, "INCLINATION": 0.0603, "RA_OF_ASC_NODE": 356.292, "ARG_OF_PERICENTER": 235.069, "MEAN_ANOMALY": 171.6636, "EPHEMERIS_TYPE": 0, "CLASSIFICATION_TYPE": "U", "NORAD_CAT_ID": 39773, "ELEMENT_SET_NO": 999, "REV_AT_EPOCH": 4222, "BSTAR": 0, "MEAN_MOTION_DOT": 4.2e-07, "MEAN_MOTION_DDOT": 0}, "tle": {"line1": "1 39773U 14030A   25349.87545044  .00000042  00000+0  00000+0 0  9991", "line2": "2 39773   0.0603 356.2920 0004334 235.0690 171.6636  1.00271593 42224"}}, "geometry": {"type": "Point", "coordinates": [-136.73626638810532, -0.0650403723756241]}}, {"type": "Feature", "properties": {"norad_id": 40425, "name": "EUTELSAT 115 WEST B", "group": "eutelsat", "lat": 0.00821708576696887, "lon": 105.27915309534954, "alt_km": 35786.92000985606, "timestamp": "2025-12-16T08:59:42.830570+00:00", "meta": {"OBJECT_NAME": "EUTELSAT 115 WEST B", "OBJECT_ID": "2015-010B", "EPOCH": "2025-12-15T08:27:38.617056", "MEAN_MOTION": 1.00270198, "ECCENTRICITY": 1.61e-05, "INCLINATION": 0.0426, "RA_OF_ASC_NODE": 166.1328, "ARG_OF_PERICENTER": 67.8489, "MEAN_ANOMALY": 222.2908, "EPHEMERIS_TYPE": 0, "CLASSIFICATION_TYPE": "U", "NORAD_CAT_ID": 40425, "ELEMENT_SET_NO": 999, "REV_AT_EPOCH": 3955, "BSTAR": 0, "MEAN_MOTION_DOT": -3e-08, "MEAN_MOTION_DDOT": 0}, "tle": {"line1": "1 40425U 15010B   25349.35253029 -.00000003  00000+0  00000+0 0  9996", "line2": "2 40425   0.0426 166.1328 0000161  67.8489 222.2908  1.00270198 39551"}}, "geometry": {"type": "Point", "coordinates": [105.27915309534954, 0.00821708576696887]}}, {"type": "Feature", "properties": {"norad_id": 40875, "name": "EUTELSAT 8 WEST B", "group": "eutelsat", "lat": -0.06449375517202453, "lon": -147.84355898880375, "alt_km": 35775.59837801657, "timestamp": "2025-12-16T08:59:42.830581+00:00", "meta": {"OBJECT_NAME": "EUTELSAT 8 WEST B", "OBJECT_ID": "2015-039B", "EPOCH": "2025-12-15T21:54:39.749184", "MEAN_MOTION": 1.00271688, "ECCENTRICITY": 0.00042733, "INCLINATION": 0.0644, "RA_OF_ASC_NODE": 347.4174, "ARG_OF_PERICENTER": 279.3067, "MEAN_ANOMALY": 138.7664, "EPHEMERIS_TYPE": 0, "CLASSIFICATION_TYPE": "U", "NORAD_CAT_ID": 40875, "ELEMENT_SET_NO": 999, "REV_AT_EPOCH": 3781, "BSTAR": 0, "MEAN_MOTION_DOT": -4.3e-07, "MEAN_MOTION_DDOT": 0}, "tle": {"line1": "1 40875U 15039B   25349.91296006 -.00000043  00000+0  00000+0 0  9994", "line2": "2 40875   0.0644 347.4174 0004273 279.3067 138.7664  1.00271688 37817"}}, "geometry": {"type": "Point", "coordinates": [-147.84355898880375, -0.06449375517202453]}}, {"type": "Feature", "properties": {"norad_id": 41310, "name": "EUTELSAT 9B", "group": "eutelsat", "lat": -0.005239637533250906, "lon": -130.86347310807906, "alt_km": 35772.25597901642, "timestamp": "2025-12-16T08:59:42.830593+00:00", "meta": {"OBJECT_NAME": "EUTELSAT 9B", "OBJECT_ID": "2016-005A", "EPOCH": "2025-12-15T21:00:38.918016", "MEAN_MOTION": 1.00271297, "ECCENTRICITY": 0.00045228, "INCLINATION": 0.0525, "RA_OF_ASC_NODE": 68.3642, "ARG_OF_PERICENTER": 204.2583, "MEAN_ANOMALY": 136.3036, "EPHEMERIS_TYPE": 0, "CLASSIFICATION_TYPE": "U", "NORAD_CAT_ID": 41310, "ELEMENT_SET_NO": 999, "REV_AT_EPOCH": 3627, "BSTAR": 0, "MEAN_MOTION_DOT": 8.4e-07, "MEAN_MOTION_DDOT": 0}, "tle": {"line1": "1 41310U 16005A   25349.87545044  .00000084  00000+0  00000+0 0  9991", "line2": "2 41310   0.0525  68.3642 0004522 204.2583 136.3036  1.00271297 36278"}}, "geometry": {"type": "Point", "coordinates": [-130.86347310807906, -0.005239637533250906]}}, {"type": "Feature", "properties": {"norad_id": 41382, "name": "EUTELSAT 65 WEST A", "group": "eutelsat", "lat": -0.013376531816483154, "lon": 154.95375404379232, "alt_km": 35791.31943179336, "timestamp": "2025-12-16T08:59:42.830605+00:00", "meta": {"OBJECT_NAME": "EUTELSAT 65 WEST A", "OBJECT_ID": "2016-014A", "EPOCH": "2025-12-15T20:42:14.371776", "MEAN_MOTION": 1.00270699, "ECCENTRICITY": 0.00023712, "INCLINATION": 0.0595, "RA_OF_ASC_NODE": 322.2052, "ARG_OF_PERICENTER": 311.94, "MEAN_ANOMALY": 55.9731, "EPHEMERIS_TYPE": 0, "CLASSIFICATION_TYPE": "U", "NORAD_CAT_ID": 41382, "ELEMENT_SET_NO": 999, "REV_AT_EPOCH": 3569, "BSTAR": 0, "MEAN_MOTION_DOT": -2.54e-06, "MEAN_MOTION_DDOT": 0}, "tle": {"line1": "1 41382U 16014A   25349.86266634 -.00000254  00000+0  00000+0 0  9994", "line2": "2 41382   0.0595 322.2052 0002371 311.9400  55.9731  1.00270699 35693"}}, "geometry": {"type": "Point", "coordinates": [154.95375404379232, -0.013376531816483154]}}, {"type": "Feature", "properties": {"norad_id": 41589, "name": "EUTELSAT 117 WEST B", "group": "eutelsat", "lat": -0.01031522614606849, "lon": 103.1772684417434, "alt_km": 35786.69800761689, "timestamp": "2025-12-16T08:59:42.830617+00:00", "meta": {"OBJECT_NAME": "EUTELSAT 117 WEST B", "OBJECT_ID": "2016-038B", "EPOCH": "2025-12-14T23:08:05.366400", "MEAN_MOTION": 1.00269355, "ECCENTRICITY": 1.202e-05, "INCLINATION": 0.0103, "RA_OF_ASC_NODE": 155.4943, "ARG_OF_PERICENTER": 36.5325, "MEAN_ANOMALY": 121.8783, "EPHEMERIS_TYPE": 0, "CLASSIFICATION_TYPE": "U", "NORAD_CAT_ID": 41589, "ELEMENT_SET_NO": 999, "REV_AT_EPOCH": 3481, "BSTAR": 0, "MEAN_MOTION_DOT": 9e-08, "MEAN_MOTION_DDOT": 0}, "tle": {"line1": "1 41589U 16038B   25348.96395100  .00000009  00000+0  00000+0 0  9997", "line2": "2 41589   0.0103 155.4943 0000120  36.5325 121.8783  1.00269355 34818"}}, "geometry": {"type": "Point", "coordinates": [103.1772684417434, -0.01031522614606849]}}]}